{
  "type": "FeatureCollection",
  "features": [
    {
      "type": "Feature",
      "properties": {
        "norad_id": 33886,
        "name": "IRIDIUM 33 DEB",
        "group": "iridium-33-debris",
        "lat": 70.37079323484343,
        "lon": -126.86359682130488,
        "alt_km": 766.355240876308,
        "timestamp": "2025-12-21T22:41:41.844190+00:00",
        "meta_object_name": "IRIDIUM 33 DEB",
        "meta_object_id": "1997-051BF",
        "meta_epoch": "2025-12-21T14:23:24.825696",
        "meta_mean_motion": 14.36061398,
        "meta_eccentricity": 0.00130945,
        "meta_inclination": 86.3823,
        "meta_ra_of_asc_node": 63.4995,
        "meta_arg_of_pericenter": 209.9191,
        "meta_mean_anomaly": 271.7161,
        "meta_ephemeris_type": 0,
        "meta_classification_type": "U",
        "meta_norad_cat_id": 33886,
        "meta_element_set_no": 999,
        "meta_rev_at_epoch": 88179,
        "meta_bstar": 0.00014938103,
        "meta_mean_motion_dot": 4.54e-06,
        "meta_mean_motion_ddot": 0,
        "tle_line1": "1 33886U 97051BF  25355.59959289  .00000454  00000+0  14938-3 0  9996",
        "tle_line2": "2 33886  86.3823  63.4995 0013094 209.9191 271.7161 14.36061398881793"
      },
      "geometry": {
        "type": "Point",
        "coordinates": [
          -126.86359682130488,
          70.37079323484343
        ]
      }
    },
    {
      "type": "Feature",
      "properties": {
        "norad_id": 33887,
        "name": "IRIDIUM 33 DEB",
        "group": "iridium-33-debris",
        "lat": 83.18499136557472,
        "lon": 32.16679198207287,
        "alt_km": 761.3264431550742,
        "timestamp": "2025-12-21T22:41:41.844200+00:00",
        "meta_object_name": "IRIDIUM 33 DEB",
        "meta_object_id": "1997-051BG",
        "meta_epoch": "2025-12-21T12:52:53.713920",
        "meta_mean_motion": 14.37228392,
        "meta_eccentricity": 0.00053686,
        "meta_inclination": 86.3041,
        "meta_ra_of_asc_node": 359.6009,
        "meta_arg_of_pericenter": 191.7702,
        "meta_mean_anomaly": 298.3026,
        "meta_ephemeris_type": 0,
        "meta_classification_type": "U",
        "meta_norad_cat_id": 33887,
        "meta_element_set_no": 999,
        "meta_rev_at_epoch": 88291,
        "meta_bstar": 0.00012023578,
        "meta_mean_motion_dot": 3.78e-06,
        "meta_mean_motion_ddot": 0,
        "tle_line1": "1 33887U 97051BG  25355.53673280  .00000378  00000+0  12024-3 0  9994",
        "tle_line2": "2 33887  86.3041 359.6009 0005368 191.7702 298.3026 14.37228392882913"
      },
      "geometry": {
        "type": "Point",
        "coordinates": [
          32.16679198207287,
          83.18499136557472
        ]
      }
    },
    {
      "type": "Feature",
      "properties": {
        "norad_id": 33953,
        "name": "IRIDIUM 33 DEB",
        "group": "iridium-33-debris",
        "lat": -0.5390245702056643,
        "lon": -130.18194734671027,
        "alt_km": 714.6711432629218,
        "timestamp": "2025-12-21T22:41:41.844210+00:00",
        "meta_object_name": "IRIDIUM 33 DEB",
        "meta_object_id": "1997-051BN",
        "meta_epoch": "2025-12-21T03:57:52.116192",
        "meta_mean_motion": 14.55395308,
        "meta_eccentricity": 0.00178869,
        "meta_inclination": 86.3839,
        "meta_ra_of_asc_node": 50.1227,
        "meta_arg_of_pericenter": 77.1433,
        "meta_mean_anomaly": 336.6692,
        "meta_ephemeris_type": 0,
        "meta_classification_type": "U",
        "meta_norad_cat_id": 33953,
        "meta_element_set_no": 999,
        "meta_rev_at_epoch": 88426,
        "meta_bstar": 0.0006943937,
        "meta_mean_motion_dot": 3.042e-05,
        "meta_mean_motion_ddot": 0,
        "tle_line1": "1 33953U 97051BN  25355.16518653  .00003042  00000+0  69439-3 0  9992",
        "tle_line2": "2 33953  86.3839  50.1227 0017886  77.1433 336.6692 14.55395308884260"
      },
      "geometry": {
        "type": "Point",
        "coordinates": [
          -130.18194734671027,
          -0.5390245702056643
        ]
      }
    },
    {
      "type": "Feature",
      "properties": {
        "norad_id": 33960,
        "name": "IRIDIUM 33 DEB",
        "group": "iridium-33-debris",
        "lat": -78.31935880643142,
        "lon": 123.64770781779207,
        "alt_km": 623.3553785086469,
        "timestamp": "2025-12-21T22:41:41.844221+00:00",
        "meta_object_name": "IRIDIUM 33 DEB",
        "meta_object_id": "1997-051BV",
        "meta_epoch": "2025-12-21T02:11:40.664832",
        "meta_mean_motion": 14.85568668,
        "meta_eccentricity": 0.00073568,
        "meta_inclination": 86.2542,
        "meta_ra_of_asc_node": 285.5753,
        "meta_arg_of_pericenter": 46.9215,
        "meta_mean_anomaly": 326.8092,
        "meta_ephemeris_type": 0,
        "meta_classification_type": "U",
        "meta_norad_cat_id": 33960,
        "meta_element_set_no": 999,
        "meta_rev_at_epoch": 88991,
        "meta_bstar": 0.0019890086,
        "meta_mean_motion_dot": 0.00017252,
        "meta_mean_motion_ddot": 0,
        "tle_line1": "1 33960U 97051BV  25355.09144288  .00017252  00000+0  19890-2 0  9994",
        "tle_line2": "2 33960  86.2542 285.5753 0007356  46.9215 326.8092 14.85568668889915"
      },
      "geometry": {
        "type": "Point",
        "coordinates": [
          123.64770781779207,
          -78.31935880643142
        ]
      }
    },
    {
      "type": "Feature",
      "properties": {
        "norad_id": 33966,
        "name": "IRIDIUM 33 DEB",
        "group": "iridium-33-debris",
        "lat": 64.00718210659589,
        "lon": -145.3604809741555,
        "alt_km": 716.3908221674001,
        "timestamp": "2025-12-21T22:41:41.844231+00:00",
        "meta_object_name": "IRIDIUM 33 DEB",
        "meta_object_id": "1997-051CB",
        "meta_epoch": "2025-12-21T08:58:20.862048",
        "meta_mean_motion": 14.49625093,
        "meta_eccentricity": 0.00083762,
        "meta_inclination": 86.3913,
        "meta_ra_of_asc_node": 42.3217,
        "meta_arg_of_pericenter": 161.0555,
        "meta_mean_anomaly": 212.7611,
        "meta_ephemeris_type": 0,
        "meta_classification_type": "U",
        "meta_norad_cat_id": 33966,
        "meta_element_set_no": 999,
        "meta_rev_at_epoch": 88567,
        "meta_bstar": 0.00039236704,
        "meta_mean_motion_dot": 1.527e-05,
        "meta_mean_motion_ddot": 0,
        "tle_line1": "1 33966U 97051CB  25355.37385257  .00001527  00000+0  39237-3 0  9990",
        "tle_line2": "2 33966  86.3913  42.3217 0008376 161.0555 212.7611 14.49625093885672"
      },
      "geometry": {
        "type": "Point",
        "coordinates": [
          -145.3604809741555,
          64.00718210659589
        ]
      }
    },
    {
      "type": "Feature",
      "properties": {
        "norad_id": 34071,
        "name": "IRIDIUM 33 DEB",
        "group": "iridium-33-debris",
        "lat": 1.8038433396999405,
        "lon": -166.28865481053558,
        "alt_km": 730.7864786539294,
        "timestamp": "2025-12-21T22:41:41.844241+00:00",
        "meta_object_name": "IRIDIUM 33 DEB",
        "meta_object_id": "1997-051CE",
        "meta_epoch": "2025-12-21T13:35:34.806912",
        "meta_mean_motion": 14.49500279,
        "meta_eccentricity": 0.00099174,
        "meta_inclination": 86.3449,
        "meta_ra_of_asc_node": 13.9915,
        "meta_arg_of_pericenter": 83.7763,
        "meta_mean_anomaly": 276.4571,
        "meta_ephemeris_type": 0,
        "meta_classification_type": "U",
        "meta_norad_cat_id": 34071,
        "meta_element_set_no": 999,
        "meta_rev_at_epoch": 88462,
        "meta_bstar": 0.0004555325,
        "meta_mean_motion_dot": 1.766e-05,
        "meta_mean_motion_ddot": 0,
        "tle_line1": "1 34071U 97051CE  25355.56637508  .00001766  00000+0  45553-3 0  9991",
        "tle_line2": "2 34071  86.3449  13.9915 0009917  83.7763 276.4571 14.49500279884620"
      },
      "geometry": {
        "type": "Point",
        "coordinates": [
          -166.28865481053558,
          1.8038433396999405
        ]
      }
    },
    {
      "type": "Feature",
      "properties": {
        "norad_id": 34077,
        "name": "IRIDIUM 33 DEB",
        "group": "iridium-33-debris",
        "lat": 9.833494629796707,
        "lon": -133.17577320381952,
        "alt_km": 685.1755847341847,
        "timestamp": "2025-12-21T22:41:41.844251+00:00",
        "meta_object_name": "IRIDIUM 33 DEB",
        "meta_object_id": "1997-051CL",
        "meta_epoch": "2025-12-21T03:59:30.922368",
        "meta_mean_motion": 14.64919607,
        "meta_eccentricity": 0.00092333,
        "meta_inclination": 86.385,
        "meta_ra_of_asc_node": 47.7954,
        "meta_arg_of_pericenter": 12.3417,
        "meta_mean_anomaly": 10.5487,
        "meta_ephemeris_type": 0,
        "meta_classification_type": "U",
        "meta_norad_cat_id": 34077,
        "meta_element_set_no": 999,
        "meta_rev_at_epoch": 88456,
        "meta_bstar": 0.00074353434,
        "meta_mean_motion_dot": 3.999e-05,
        "meta_mean_motion_ddot": 0,
        "tle_line1": "1 34077U 97051CL  25355.16633012  .00003999  00000+0  74353-3 0  9999",
        "tle_line2": "2 34077  86.3850  47.7954 0009233  12.3417  10.5487 14.64919607884567"
      },
      "geometry": {
        "type": "Point",
        "coordinates": [
          -133.17577320381952,
          9.833494629796707
        ]
      }
    }
  ]
}